QIANFAN-129             
1 69075U 26104C   26194.67149586 -.01918386  00000+0 -30526+1 0  9991
2 69075  88.9892 338.7428 0014206  31.1354 329.0638 13.53827463  8740
QIANFAN-130             
1 69076U 26104D   26194.87334549  .00000026  00000+0  20314-4 0  9997
2 69076  88.9898 338.7727 0011211  16.0168 344.1337 13.52786596  8741
QIANFAN-131             
1 69077U 26104E   26195.15507294  .00000004  00000+0 -11706-4 0  9991
2 69077  88.9885 338.7191 0008852  19.2510 340.8977 13.57832877  8793
QIANFAN-132             
1 69078U 26104F   26194.73288083 -.02002147  00000+0 -33112+1 0  9991
2 69078  88.9888 338.8073 0009405  14.1743 345.9670 13.50872099  8715
QIANFAN-133             
1 69079U 26104G   26195.18407480  .00000003  00000+0 -13167-4 0  9994
2 69079  88.9896 338.7265 0009916  12.6980 347.4423 13.57837933  8785
QIANFAN-134             
1 69080U 26104H   26195.17886534  .00000065  00000+0  72961-4 0  9990
2 69080  88.9897 338.7428 0010674   8.7445 351.3894 13.57810299  8786
QIANFAN-135             
1 69081U 26104J   26195.14241454  .00000014  00000+0  22028-5 0  9998
2 69081  88.9894 338.7374 0008499  17.2386 342.9056 13.57847047  8782
QIANFAN-136             
1 69082U 26104K   26195.15761258  .00000047  00000+0  48127-4 0  9992
2 69082  88.9894 338.7392 0011341  12.6980 347.4459 13.57857645  8784
QIANFAN-137             
1 69083U 26104L   26195.06512683  .00000013  00000+0  81148-6 0  9994
2 69083  88.9899 338.6354 0010779  17.2545 342.8978 13.65641439  8831
QIANFAN-138             
1 69084U 26104M   26194.71582152 -.01821296  00000+0 -29066+1 0  9996
2 69084  88.9884 338.7844 0006693  56.8411 303.3382 13.53440473  8723
QIANFAN-139             
1 69085U 26104N   26195.16895311  .00000024  00000+0  16156-4 0  9996
2 69085  88.9892 338.7232 0008656  16.5819 343.5617 13.57844335  8793
QIANFAN-140             
1 69086U 26104P   26194.79077172  .00000013  00000+0  17142-5 0  9997
2 69086  88.9894 338.7609 0007988  16.8217 343.3202 13.57832151  8742
QIANFAN-141             
1 69087U 26104Q   26194.91428836  .00000013  00000+0  30035-6 0  9996
2 69087  88.9897 338.7236 0008247  14.4085 345.7306 13.62710198  8774
QIANFAN-142             
1 69088U 26104R   26194.89200847  .00000003  00000+0 -12992-4 0  9994
2 69088  88.9872 338.7215 0008864  21.7878 338.3653 13.58820207  8772
QIANFAN-143             
1 69089U 26104S   26195.13715273  .00000029  00000+0  23961-4 0  9992
2 69089  88.9899 338.7006 0010135   9.9386 350.1967 13.57826523  8806
QIANFAN-144             
1 69090U 26104T   26195.02062434  .00000026  00000+0  20312-4 0  9990
2 69090  88.9886 338.7192 0010228   9.6705 350.4643 13.53868182  8789
