{"fetched_at":"2026-07-14T17:40:26.806Z","source":"https://celestrak.org/NORAD/elements/gp.php?GROUP=qianfan&FORMAT=JSON","constellation":"qianfan","records":[{"OBJECT_NAME":"QIANFAN-129","OBJECT_ID":"2026-104C","EPOCH":"2026-07-13T16:06:57.242304","CLASSIFICATION_TYPE":"U","MEAN_MOTION":13.53827463,"ECCENTRICITY":0.0014206,"INCLINATION":88.9892,"RA_OF_ASC_NODE":338.7428,"ARG_OF_PERICENTER":31.1354,"MEAN_ANOMALY":329.0638,"EPHEMERIS_TYPE":0,"NORAD_CAT_ID":69075,"ELEMENT_SET_NO":999,"REV_AT_EPOCH":874,"BSTAR":-3.0526,"MEAN_MOTION_DOT":-0.01918386,"MEAN_MOTION_DDOT":0},{"OBJECT_NAME":"QIANFAN-130","OBJECT_ID":"2026-104D","EPOCH":"2026-07-13T20:57:37.050336","CLASSIFICATION_TYPE":"U","MEAN_MOTION":13.52786596,"ECCENTRICITY":0.0011211,"INCLINATION":88.9898,"RA_OF_ASC_NODE":338.7727,"ARG_OF_PERICENTER":16.0168,"MEAN_ANOMALY":344.1337,"EPHEMERIS_TYPE":0,"NORAD_CAT_ID":69076,"ELEMENT_SET_NO":999,"REV_AT_EPOCH":874,"BSTAR":0.000020314,"MEAN_MOTION_DOT":2.6e-7,"MEAN_MOTION_DDOT":0},{"OBJECT_NAME":"QIANFAN-131","OBJECT_ID":"2026-104E","EPOCH":"2026-07-14T03:43:18.302016","CLASSIFICATION_TYPE":"U","MEAN_MOTION":13.57832877,"ECCENTRICITY":0.0008852,"INCLINATION":88.9885,"RA_OF_ASC_NODE":338.7191,"ARG_OF_PERICENTER":19.251,"MEAN_ANOMALY":340.8977,"EPHEMERIS_TYPE":0,"NORAD_CAT_ID":69077,"ELEMENT_SET_NO":999,"REV_AT_EPOCH":879,"BSTAR":-0.000011706,"MEAN_MOTION_DOT":4e-8,"MEAN_MOTION_DDOT":0},{"OBJECT_NAME":"QIANFAN-132","OBJECT_ID":"2026-104F","EPOCH":"2026-07-13T17:35:20.903712","CLASSIFICATION_TYPE":"U","MEAN_MOTION":13.50872099,"ECCENTRICITY":0.0009405,"INCLINATION":88.9888,"RA_OF_ASC_NODE":338.8073,"ARG_OF_PERICENTER":14.1743,"MEAN_ANOMALY":345.967,"EPHEMERIS_TYPE":0,"NORAD_CAT_ID":69078,"ELEMENT_SET_NO":999,"REV_AT_EPOCH":871,"BSTAR":-3.3112,"MEAN_MOTION_DOT":-0.02002147,"MEAN_MOTION_DDOT":0},{"OBJECT_NAME":"QIANFAN-133","OBJECT_ID":"2026-104G","EPOCH":"2026-07-14T04:25:04.062720","CLASSIFICATION_TYPE":"U","MEAN_MOTION":13.57837933,"ECCENTRICITY":0.0009916,"INCLINATION":88.9896,"RA_OF_ASC_NODE":338.7265,"ARG_OF_PERICENTER":12.698,"MEAN_ANOMALY":347.4423,"EPHEMERIS_TYPE":0,"NORAD_CAT_ID":69079,"ELEMENT_SET_NO":999,"REV_AT_EPOCH":878,"BSTAR":-0.000013167,"MEAN_MOTION_DOT":3e-8,"MEAN_MOTION_DDOT":0},{"OBJECT_NAME":"QIANFAN-134","OBJECT_ID":"2026-104H","EPOCH":"2026-07-14T04:17:33.965376","CLASSIFICATION_TYPE":"U","MEAN_MOTION":13.57810299,"ECCENTRICITY":0.0010674,"INCLINATION":88.9897,"RA_OF_ASC_NODE":338.7428,"ARG_OF_PERICENTER":8.7445,"MEAN_ANOMALY":351.3894,"EPHEMERIS_TYPE":0,"NORAD_CAT_ID":69080,"ELEMENT_SET_NO":999,"REV_AT_EPOCH":878,"BSTAR":0.000072961,"MEAN_MOTION_DOT":6.5e-7,"MEAN_MOTION_DDOT":0},{"OBJECT_NAME":"QIANFAN-135","OBJECT_ID":"2026-104J","EPOCH":"2026-07-14T03:25:04.616256","CLASSIFICATION_TYPE":"U","MEAN_MOTION":13.57847047,"ECCENTRICITY":0.0008499,"INCLINATION":88.9894,"RA_OF_ASC_NODE":338.7374,"ARG_OF_PERICENTER":17.2386,"MEAN_ANOMALY":342.9056,"EPHEMERIS_TYPE":0,"NORAD_CAT_ID":69081,"ELEMENT_SET_NO":999,"REV_AT_EPOCH":878,"BSTAR":0.0000022028,"MEAN_MOTION_DOT":1.4e-7,"MEAN_MOTION_DDOT":0},{"OBJECT_NAME":"QIANFAN-136","OBJECT_ID":"2026-104K","EPOCH":"2026-07-14T03:46:57.726912","CLASSIFICATION_TYPE":"U","MEAN_MOTION":13.57857645,"ECCENTRICITY":0.0011341,"INCLINATION":88.9894,"RA_OF_ASC_NODE":338.7392,"ARG_OF_PERICENTER":12.698,"MEAN_ANOMALY":347.4459,"EPHEMERIS_TYPE":0,"NORAD_CAT_ID":69082,"ELEMENT_SET_NO":999,"REV_AT_EPOCH":878,"BSTAR":0.000048127,"MEAN_MOTION_DOT":4.7e-7,"MEAN_MOTION_DDOT":0},{"OBJECT_NAME":"QIANFAN-137","OBJECT_ID":"2026-104L","EPOCH":"2026-07-14T01:33:46.958112","CLASSIFICATION_TYPE":"U","MEAN_MOTION":13.65641439,"ECCENTRICITY":0.0010779,"INCLINATION":88.9899,"RA_OF_ASC_NODE":338.6354,"ARG_OF_PERICENTER":17.2545,"MEAN_ANOMALY":342.8978,"EPHEMERIS_TYPE":0,"NORAD_CAT_ID":69083,"ELEMENT_SET_NO":999,"REV_AT_EPOCH":883,"BSTAR":8.1148e-7,"MEAN_MOTION_DOT":1.3e-7,"MEAN_MOTION_DDOT":0},{"OBJECT_NAME":"QIANFAN-138","OBJECT_ID":"2026-104M","EPOCH":"2026-07-13T17:10:46.979328","CLASSIFICATION_TYPE":"U","MEAN_MOTION":13.53440473,"ECCENTRICITY":0.0006693,"INCLINATION":88.9884,"RA_OF_ASC_NODE":338.7844,"ARG_OF_PERICENTER":56.8411,"MEAN_ANOMALY":303.3382,"EPHEMERIS_TYPE":0,"NORAD_CAT_ID":69084,"ELEMENT_SET_NO":999,"REV_AT_EPOCH":872,"BSTAR":-2.9066,"MEAN_MOTION_DOT":-0.01821296,"MEAN_MOTION_DDOT":0},{"OBJECT_NAME":"QIANFAN-139","OBJECT_ID":"2026-104N","EPOCH":"2026-07-14T04:03:17.548704","CLASSIFICATION_TYPE":"U","MEAN_MOTION":13.57844335,"ECCENTRICITY":0.0008656,"INCLINATION":88.9892,"RA_OF_ASC_NODE":338.7232,"ARG_OF_PERICENTER":16.5819,"MEAN_ANOMALY":343.5617,"EPHEMERIS_TYPE":0,"NORAD_CAT_ID":69085,"ELEMENT_SET_NO":999,"REV_AT_EPOCH":879,"BSTAR":0.000016156,"MEAN_MOTION_DOT":2.4e-7,"MEAN_MOTION_DDOT":0},{"OBJECT_NAME":"QIANFAN-140","OBJECT_ID":"2026-104P","EPOCH":"2026-07-13T18:58:42.676608","CLASSIFICATION_TYPE":"U","MEAN_MOTION":13.57832151,"ECCENTRICITY":0.0007988,"INCLINATION":88.9894,"RA_OF_ASC_NODE":338.7609,"ARG_OF_PERICENTER":16.8217,"MEAN_ANOMALY":343.3202,"EPHEMERIS_TYPE":0,"NORAD_CAT_ID":69086,"ELEMENT_SET_NO":999,"REV_AT_EPOCH":874,"BSTAR":0.0000017142,"MEAN_MOTION_DOT":1.3e-7,"MEAN_MOTION_DDOT":0},{"OBJECT_NAME":"QIANFAN-141","OBJECT_ID":"2026-104Q","EPOCH":"2026-07-13T21:56:34.514304","CLASSIFICATION_TYPE":"U","MEAN_MOTION":13.62710198,"ECCENTRICITY":0.0008247,"INCLINATION":88.9897,"RA_OF_ASC_NODE":338.7236,"ARG_OF_PERICENTER":14.4085,"MEAN_ANOMALY":345.7306,"EPHEMERIS_TYPE":0,"NORAD_CAT_ID":69087,"ELEMENT_SET_NO":999,"REV_AT_EPOCH":877,"BSTAR":3.0035e-7,"MEAN_MOTION_DOT":1.3e-7,"MEAN_MOTION_DDOT":0},{"OBJECT_NAME":"QIANFAN-142","OBJECT_ID":"2026-104R","EPOCH":"2026-07-13T21:24:29.531808","CLASSIFICATION_TYPE":"U","MEAN_MOTION":13.58820207,"ECCENTRICITY":0.0008864,"INCLINATION":88.9872,"RA_OF_ASC_NODE":338.7215,"ARG_OF_PERICENTER":21.7878,"MEAN_ANOMALY":338.3653,"EPHEMERIS_TYPE":0,"NORAD_CAT_ID":69088,"ELEMENT_SET_NO":999,"REV_AT_EPOCH":877,"BSTAR":-0.000012992,"MEAN_MOTION_DOT":3e-8,"MEAN_MOTION_DDOT":0},{"OBJECT_NAME":"QIANFAN-143","OBJECT_ID":"2026-104S","EPOCH":"2026-07-14T03:17:29.995872","CLASSIFICATION_TYPE":"U","MEAN_MOTION":13.57826523,"ECCENTRICITY":0.0010135,"INCLINATION":88.9899,"RA_OF_ASC_NODE":338.7006,"ARG_OF_PERICENTER":9.9386,"MEAN_ANOMALY":350.1967,"EPHEMERIS_TYPE":0,"NORAD_CAT_ID":69089,"ELEMENT_SET_NO":999,"REV_AT_EPOCH":880,"BSTAR":0.000023961,"MEAN_MOTION_DOT":2.9e-7,"MEAN_MOTION_DDOT":0},{"OBJECT_NAME":"QIANFAN-144","OBJECT_ID":"2026-104T","EPOCH":"2026-07-14T00:29:41.942976","CLASSIFICATION_TYPE":"U","MEAN_MOTION":13.53868182,"ECCENTRICITY":0.0010228,"INCLINATION":88.9886,"RA_OF_ASC_NODE":338.7192,"ARG_OF_PERICENTER":9.6705,"MEAN_ANOMALY":350.4643,"EPHEMERIS_TYPE":0,"NORAD_CAT_ID":69090,"ELEMENT_SET_NO":999,"REV_AT_EPOCH":878,"BSTAR":0.000020312,"MEAN_MOTION_DOT":2.6e-7,"MEAN_MOTION_DDOT":0}]}
